ONEWEB-0319             
1 49105U 21075AG  25280.83750620  .00000025  00000+0  32461-4 0  9998
2 49105  87.9085  56.0603 0001903  84.6353 275.4996 13.17647270200372
ONEWEB-0323             
1 49106U 21075AH  25280.31450867  .00000308  00000+0  82024-3 0  9995
2 49106  87.8949  40.8774 0002105  80.8193 279.3174 13.12444360201389
ONEWEB-0329             
1 49107U 21075AJ  25280.39033749  .00000094  00000+0  20768-3 0  9999
2 49107  87.9085  56.1526 0001832  94.0968 266.0374 13.17650794200299
ONEWEB-0330             
1 49108U 21075AK  25280.39117561  .00000025  00000+0  30336-4 0  9992
2 49108  87.9087  56.1570 0001946  98.1186 262.0166 13.17650493200330
ONEWEB-0292             
1 49186U 21083A   25280.94154729  .00000286  00000+0  74789-3 0  9993
2 49186  87.9052  10.3868 0001788  95.6410 264.4923 13.13470404197819
ONEWEB-0303             
1 49187U 21083B   25280.71115476  .00000017  00000+0  10493-4 0  9990
2 49187  87.9226  25.5912 0001820  94.3250 265.8090 13.18686535196702
ONEWEB-0306             
1 49188U 21083C   25280.70125959  .00000015  00000+0  58454-5 0  9995
2 49188  87.9226  25.5785 0001820 107.0772 253.0559 13.18686641196743
ONEWEB-0307             
1 49189U 21083D   25280.25001084  .00000395  00000+0  10475-2 0  9997
2 49189  87.9041  10.5193 0001788 102.9248 257.2081 13.13475966197727
